[{"OBJECT_NAME":"ONEWEB-0411","OBJECT_ID":"2022-012B","EPOCH":"2025-09-21T05:37:48.690048","MEAN_MOTION":13.10371541,"ECCENTRICITY":0.00016241,"INCLINATION":87.8737,"RA_OF_ASC_NODE":89.8988,"ARG_OF_PERICENTER":108.5676,"MEAN_ANOMALY":251.5628,"EPHEMERIS_TYPE":0,"CLASSIFICATION_TYPE":"U","NORAD_CAT_ID":51623,"ELEMENT_SET_NO":999,"REV_AT_EPOCH":17406,"BSTAR":-0.0015286897,"MEAN_MOTION_DOT":-5.21e-6,"MEAN_MOTION_DDOT":0},{"OBJECT_NAME":"ONEWEB-0415","OBJECT_ID":"2022-012C","EPOCH":"2025-09-21T05:33:01.705536","MEAN_MOTION":13.10370471,"ECCENTRICITY":0.00016522,"INCLINATION":87.8734,"RA_OF_ASC_NODE":89.9019,"ARG_OF_PERICENTER":98.9553,"MEAN_ANOMALY":261.1761,"EPHEMERIS_TYPE":0,"CLASSIFICATION_TYPE":"U","NORAD_CAT_ID":51624,"ELEMENT_SET_NO":999,"REV_AT_EPOCH":17406,"BSTAR":-0.0013330191,"MEAN_MOTION_DOT":-4.53e-6,"MEAN_MOTION_DDOT":0},{"OBJECT_NAME":"ONEWEB-0416","OBJECT_ID":"2022-012D","EPOCH":"2025-09-21T05:49:45.575040","MEAN_MOTION":13.10373262,"ECCENTRICITY":0.0001708,"INCLINATION":87.8741,"RA_OF_ASC_NODE":89.9199,"ARG_OF_PERICENTER":89.5351,"MEAN_ANOMALY":270.5972,"EPHEMERIS_TYPE":0,"CLASSIFICATION_TYPE":"U","NORAD_CAT_ID":51625,"ELEMENT_SET_NO":999,"REV_AT_EPOCH":17410,"BSTAR":-0.001711493,"MEAN_MOTION_DOT":-5.85e-6,"MEAN_MOTION_DDOT":0},{"OBJECT_NAME":"ONEWEB-0422","OBJECT_ID":"2022-012E","EPOCH":"2025-09-21T04:27:11.872512","MEAN_MOTION":13.17648315,"ECCENTRICITY":9.498e-5,"INCLINATION":87.9059,"RA_OF_ASC_NODE":59.3484,"ARG_OF_PERICENTER":89.9426,"MEAN_ANOMALY":270.1814,"EPHEMERIS_TYPE":0,"CLASSIFICATION_TYPE":"U","NORAD_CAT_ID":51626,"ELEMENT_SET_NO":999,"REV_AT_EPOCH":17838,"BSTAR":0.00025461383,"MEAN_MOTION_DOT":1.12e-6,"MEAN_MOTION_DDOT":0},{"OBJECT_NAME":"ONEWEB-0423","OBJECT_ID":"2022-012F","EPOCH":"2025-09-21T04:17:28.415904","MEAN_MOTION":13.17646685,"ECCENTRICITY":0.00016387,"INCLINATION":87.9062,"RA_OF_ASC_NODE":59.3587,"ARG_OF_PERICENTER":90.4215,"MEAN_ANOMALY":269.7105,"EPHEMERIS_TYPE":0,"CLASSIFICATION_TYPE":"U","NORAD_CAT_ID":51627,"ELEMENT_SET_NO":999,"REV_AT_EPOCH":17827,"BSTAR":0.0001059802,"MEAN_MOTION_DOT":5.4e-7,"MEAN_MOTION_DDOT":0},{"OBJECT_NAME":"ONEWEB-0425","OBJECT_ID":"2022-012G","EPOCH":"2025-09-21T06:04:07.010688","MEAN_MOTION":13.10375144,"ECCENTRICITY":0.00019113,"INCLINATION":87.8742,"RA_OF_ASC_NODE":89.8869,"ARG_OF_PERICENTER":80.0317,"MEAN_ANOMALY":280.1026,"EPHEMERIS_TYPE":0,"CLASSIFICATION_TYPE":"U","NORAD_CAT_ID":51628,"ELEMENT_SET_NO":999,"REV_AT_EPOCH":17410,"BSTAR":-0.00065591815,"MEAN_MOTION_DOT":-2.16e-6,"MEAN_MOTION_DDOT":0},{"OBJECT_NAME":"ONEWEB-0428","OBJECT_ID":"2022-012H","EPOCH":"2025-09-21T05:35:25.043136","MEAN_MOTION":13.10370811,"ECCENTRICITY":0.00014567,"INCLINATION":87.8736,"RA_OF_ASC_NODE":89.9122,"ARG_OF_PERICENTER":89.6597,"MEAN_ANOMALY":270.4697,"EPHEMERIS_TYPE":0,"CLASSIFICATION_TYPE":"U","NORAD_CAT_ID":51629,"ELEMENT_SET_NO":999,"REV_AT_EPOCH":17406,"BSTAR":-0.0015093474,"MEAN_MOTION_DOT":-5.14e-6,"MEAN_MOTION_DDOT":0},{"OBJECT_NAME":"ONEWEB-0431","OBJECT_ID":"2022-012J","EPOCH":"2025-09-21T01:12:19.577376","MEAN_MOTION":13.10374402,"ECCENTRICITY":0.00014944,"INCLINATION":87.8743,"RA_OF_ASC_NODE":89.9214,"ARG_OF_PERICENTER":111.3217,"MEAN_ANOMALY":248.807,"EPHEMERIS_TYPE":0,"CLASSIFICATION_TYPE":"U","NORAD_CAT_ID":51630,"ELEMENT_SET_NO":999,"REV_AT_EPOCH":17409,"BSTAR":0.0017126055,"MEAN_MOTION_DOT":6.11e-6,"MEAN_MOTION_DDOT":0},{"OBJECT_NAME":"ONEWEB-0434","OBJECT_ID":"2022-012K","EPOCH":"2025-09-21T06:08:54.383136","MEAN_MOTION":13.10375673,"ECCENTRICITY":0.00021126,"INCLINATION":87.8744,"RA_OF_ASC_NODE":89.9218,"ARG_OF_PERICENTER":73.9128,"MEAN_ANOMALY":286.2232,"EPHEMERIS_TYPE":0,"CLASSIFICATION_TYPE":"U","NORAD_CAT_ID":51631,"ELEMENT_SET_NO":999,"REV_AT_EPOCH":17410,"BSTAR":-0.00011090881,"MEAN_MOTION_DOT":-2.6e-7,"MEAN_MOTION_DDOT":0},{"OBJECT_NAME":"ONEWEB-0435","OBJECT_ID":"2022-012L","EPOCH":"2025-09-21T06:20:51.897984","MEAN_MOTION":13.10375039,"ECCENTRICITY":0.00012486,"INCLINATION":87.8742,"RA_OF_ASC_NODE":89.9116,"ARG_OF_PERICENTER":83.8668,"MEAN_ANOMALY":276.2602,"EPHEMERIS_TYPE":0,"CLASSIFICATION_TYPE":"U","NORAD_CAT_ID":51632,"ELEMENT_SET_NO":999,"REV_AT_EPOCH":17409,"BSTAR":0.0011403274,"MEAN_MOTION_DOT":4.11e-6,"MEAN_MOTION_DDOT":0},{"OBJECT_NAME":"ONEWEB-0436","OBJECT_ID":"2022-012M","EPOCH":"2025-09-21T04:05:19.522176","MEAN_MOTION":13.17646887,"ECCENTRICITY":0.00015025,"INCLINATION":87.9054,"RA_OF_ASC_NODE":59.3403,"ARG_OF_PERICENTER":97.5162,"MEAN_ANOMALY":262.6141,"EPHEMERIS_TYPE":0,"CLASSIFICATION_TYPE":"U","NORAD_CAT_ID":51633,"ELEMENT_SET_NO":999,"REV_AT_EPOCH":17825,"BSTAR":-9.840132e-5,"MEAN_MOTION_DOT":-2.5e-7,"MEAN_MOTION_DDOT":0},{"OBJECT_NAME":"ONEWEB-0438","OBJECT_ID":"2022-012N","EPOCH":"2025-09-21T05:56:56.258304","MEAN_MOTION":13.10374307,"ECCENTRICITY":0.00017846,"INCLINATION":87.8739,"RA_OF_ASC_NODE":89.9159,"ARG_OF_PERICENTER":83.6044,"MEAN_ANOMALY":276.5286,"EPHEMERIS_TYPE":0,"CLASSIFICATION_TYPE":"U","NORAD_CAT_ID":51634,"ELEMENT_SET_NO":999,"REV_AT_EPOCH":17412,"BSTAR":-0.0012880384,"MEAN_MOTION_DOT":-4.37e-6,"MEAN_MOTION_DDOT":0},{"OBJECT_NAME":"ONEWEB-0439","OBJECT_ID":"2022-012P","EPOCH":"2025-09-21T00:31:51.474720","MEAN_MOTION":13.10375231,"ECCENTRICITY":0.00016156,"INCLINATION":87.8743,"RA_OF_ASC_NODE":89.9494,"ARG_OF_PERICENTER":84.8044,"MEAN_ANOMALY":275.3267,"EPHEMERIS_TYPE":0,"CLASSIFICATION_TYPE":"U","NORAD_CAT_ID":51635,"ELEMENT_SET_NO":999,"REV_AT_EPOCH":17407,"BSTAR":-0.00084457215,"MEAN_MOTION_DOT":-2.82e-6,"MEAN_MOTION_DDOT":0},{"OBJECT_NAME":"ONEWEB-0442","OBJECT_ID":"2022-012Q","EPOCH":"2025-09-21T03:54:24.309504","MEAN_MOTION":13.17649572,"ECCENTRICITY":0.0002336,"INCLINATION":87.9052,"RA_OF_ASC_NODE":59.3958,"ARG_OF_PERICENTER":89.4815,"MEAN_ANOMALY":270.6584,"EPHEMERIS_TYPE":0,"CLASSIFICATION_TYPE":"U","NORAD_CAT_ID":51636,"ELEMENT_SET_NO":999,"REV_AT_EPOCH":17824,"BSTAR":0.00021732383,"MEAN_MOTION_DOT":9.7e-7,"MEAN_MOTION_DDOT":0},{"OBJECT_NAME":"ONEWEB-0443","OBJECT_ID":"2022-012R","EPOCH":"2025-09-21T04:22:20.559360","MEAN_MOTION":13.17647587,"ECCENTRICITY":0.00017428,"INCLINATION":87.9048,"RA_OF_ASC_NODE":59.3989,"ARG_OF_PERICENTER":82.1311,"MEAN_ANOMALY":278.0019,"EPHEMERIS_TYPE":0,"CLASSIFICATION_TYPE":"U","NORAD_CAT_ID":51637,"ELEMENT_SET_NO":999,"REV_AT_EPOCH":17829,"BSTAR":3.9985317e-5,"MEAN_MOTION_DOT":2.8e-7,"MEAN_MOTION_DDOT":0},{"OBJECT_NAME":"ONEWEB-0444","OBJECT_ID":"2022-012S","EPOCH":"2025-09-21T05:47:22.330752","MEAN_MOTION":13.10373408,"ECCENTRICITY":0.0001531,"INCLINATION":87.8737,"RA_OF_ASC_NODE":89.9057,"ARG_OF_PERICENTER":84.0497,"MEAN_ANOMALY":276.0804,"EPHEMERIS_TYPE":0,"CLASSIFICATION_TYPE":"U","NORAD_CAT_ID":51638,"ELEMENT_SET_NO":999,"REV_AT_EPOCH":17411,"BSTAR":-0.0017987193,"MEAN_MOTION_DOT":-6.15e-6,"MEAN_MOTION_DDOT":0},{"OBJECT_NAME":"ONEWEB-0445","OBJECT_ID":"2022-012T","EPOCH":"2025-09-21T06:18:28.514592","MEAN_MOTION":13.10376637,"ECCENTRICITY":0.00017911,"INCLINATION":87.8756,"RA_OF_ASC_NODE":89.8555,"ARG_OF_PERICENTER":91.0201,"MEAN_ANOMALY":269.1131,"EPHEMERIS_TYPE":0,"CLASSIFICATION_TYPE":"U","NORAD_CAT_ID":51639,"ELEMENT_SET_NO":999,"REV_AT_EPOCH":17412,"BSTAR":0.00094162566,"MEAN_MOTION_DOT":3.41e-6,"MEAN_MOTION_DDOT":0},{"OBJECT_NAME":"ONEWEB-0446","OBJECT_ID":"2022-012U","EPOCH":"2025-09-21T05:44:58.895520","MEAN_MOTION":13.10372212,"ECCENTRICITY":0.00017404,"INCLINATION":87.8737,"RA_OF_ASC_NODE":89.9215,"ARG_OF_PERICENTER":94.469,"MEAN_ANOMALY":265.6636,"EPHEMERIS_TYPE":0,"CLASSIFICATION_TYPE":"U","NORAD_CAT_ID":51640,"ELEMENT_SET_NO":999,"REV_AT_EPOCH":17410,"BSTAR":-0.0018589122,"MEAN_MOTION_DOT":-6.36e-6,"MEAN_MOTION_DDOT":0},{"OBJECT_NAME":"ONEWEB-0448","OBJECT_ID":"2022-012V","EPOCH":"2025-09-21T05:52:08.872032","MEAN_MOTION":13.10373093,"ECCENTRICITY":0.00015765,"INCLINATION":87.874,"RA_OF_ASC_NODE":89.9203,"ARG_OF_PERICENTER":85.9819,"MEAN_ANOMALY":274.1488,"EPHEMERIS_TYPE":0,"CLASSIFICATION_TYPE":"U","NORAD_CAT_ID":51641,"ELEMENT_SET_NO":999,"REV_AT_EPOCH":17407,"BSTAR":-0.001647923,"MEAN_MOTION_DOT":-5.63e-6,"MEAN_MOTION_DDOT":0},{"OBJECT_NAME":"ONEWEB-0449","OBJECT_ID":"2022-012W","EPOCH":"2025-09-21T05:59:20.017536","MEAN_MOTION":13.10375468,"ECCENTRICITY":0.00019881,"INCLINATION":87.8737,"RA_OF_ASC_NODE":89.8898,"ARG_OF_PERICENTER":76.8714,"MEAN_ANOMALY":283.2635,"EPHEMERIS_TYPE":0,"CLASSIFICATION_TYPE":"U","NORAD_CAT_ID":51642,"ELEMENT_SET_NO":999,"REV_AT_EPOCH":17408,"BSTAR":-0.0011187974,"MEAN_MOTION_DOT":-3.78e-6,"MEAN_MOTION_DDOT":0},{"OBJECT_NAME":"ONEWEB-0451","OBJECT_ID":"2022-012X","EPOCH":"2025-09-21T04:00:27.875520","MEAN_MOTION":13.17649391,"ECCENTRICITY":0.00018085,"INCLINATION":87.9062,"RA_OF_ASC_NODE":59.3344,"ARG_OF_PERICENTER":89.3921,"MEAN_ANOMALY":270.7418,"EPHEMERIS_TYPE":0,"CLASSIFICATION_TYPE":"U","NORAD_CAT_ID":51643,"ELEMENT_SET_NO":999,"REV_AT_EPOCH":17823,"BSTAR":5.129887e-5,"MEAN_MOTION_DOT":3.3e-7,"MEAN_MOTION_DDOT":0},{"OBJECT_NAME":"ONEWEB-0452","OBJECT_ID":"2022-012Y","EPOCH":"2025-09-21T03:58:02.424576","MEAN_MOTION":13.17647556,"ECCENTRICITY":0.00017601,"INCLINATION":87.9055,"RA_OF_ASC_NODE":59.3963,"ARG_OF_PERICENTER":84.1615,"MEAN_ANOMALY":275.9717,"EPHEMERIS_TYPE":0,"CLASSIFICATION_TYPE":"U","NORAD_CAT_ID":51644,"ELEMENT_SET_NO":999,"REV_AT_EPOCH":17824,"BSTAR":7.9704232e-5,"MEAN_MOTION_DOT":4.4e-7,"MEAN_MOTION_DDOT":0},{"OBJECT_NAME":"ONEWEB-0456","OBJECT_ID":"2022-012AA","EPOCH":"2025-09-21T06:13:40.780128","MEAN_MOTION":13.10376075,"ECCENTRICITY":0.00014639,"INCLINATION":87.8752,"RA_OF_ASC_NODE":89.8491,"ARG_OF_PERICENTER":88.093,"MEAN_ANOMALY":272.0365,"EPHEMERIS_TYPE":0,"CLASSIFICATION_TYPE":"U","NORAD_CAT_ID":51646,"ELEMENT_SET_NO":999,"REV_AT_EPOCH":17412,"BSTAR":0.00049735899,"MEAN_MOTION_DOT":1.86e-6,"MEAN_MOTION_DDOT":0}]
